start=new Date('2023-02-01T00:00:00.000Z').valueOf();
sats=[{"OBJECT_NAME":"STARLINK-4452","BSTAR":"0.00006347000000","EPHEMERIS_TYPE":"0","PERIOD":"95.919","MEAN_MOTION_DOT":"0.00000757","MEAN_MOTION_DDOT":"0.0000000000000","MEAN_MOTION":"15.01271838","GP_ID":"224129098","MEAN_ELEMENT_THEORY":"SGP4","EPOCH":"2023-01-31T22:30:35.321184","FILE":"3766747","RCS_SIZE":"MEDIUM","ELEMENT_SET_NO":"999","CLASSIFICATION_TYPE":"U","REV_AT_EPOCH":"2328","TLE_LINE2":"2 53658  97.6529 274.9746 0003651  85.3511 274.8130 15.01271838 23280","TLE_LINE1":"1 53658U 22105L   23031.93790881  .00000757  00000-0  63470-4 0  9994","PERIAPSIS":"560.441","SEMIMAJOR_AXIS":"6941.110","REF_FRAME":"TEME","NORAD_CAT_ID":"53658","MEAN_ANOMALY":"274.8130","TIME_SYSTEM":"UTC","SITE":"AFWTR","DECAY_DATE":null,"APOAPSIS":"565.510","RA_OF_ASC_NODE":"274.9746","COUNTRY_CODE":"US","ARG_OF_PERICENTER":"85.3511","ECCENTRICITY":"0.00036510","INCLINATION":"97.6529","OBJECT_TYPE":"PAYLOAD","LAUNCH_DATE":"2022-08-31","OBJECT_ID":"2022-105L","CENTER_NAME":"EARTH"},{"EPOCH":"2023-01-31T22:33:15.741792","FILE":"3766747","GP_ID":"224129350","MEAN_ELEMENT_THEORY":"SGP4","REV_AT_EPOCH":"2328","TLE_LINE2":"2 53659  97.6531 274.9752 0003307  88.6122 271.5481 15.01272578 23288","TLE_LINE1":"1 53659U 22105M   23031.93976553  .00006346  00000-0  49801-3 0  9998","PERIAPSIS":"560.678","RCS_SIZE":"LARGE","ELEMENT_SET_NO":"999","CLASSIFICATION_TYPE":"U","EPHEMERIS_TYPE":"0","PERIOD":"95.919","MEAN_MOTION_DOT":"0.00006346","OBJECT_NAME":"STARLINK-4463","BSTAR":"0.00049801000000","MEAN_MOTION_DDOT":"0.0000000000000","MEAN_MOTION":"15.01272578","ECCENTRICITY":"0.00033070","INCLINATION":"97.6531","RA_OF_ASC_NODE":"274.9752","COUNTRY_CODE":"US","ARG_OF_PERICENTER":"88.6122","LAUNCH_DATE":"2022-08-31","OBJECT_ID":"2022-105M","CENTER_NAME":"EARTH","OBJECT_TYPE":"PAYLOAD","MEAN_ANOMALY":"271.5481","TIME_SYSTEM":"UTC","SEMIMAJOR_AXIS":"6941.108","REF_FRAME":"TEME","NORAD_CAT_ID":"53659","APOAPSIS":"565.269","SITE":"AFWTR","DECAY_DATE":null},{"APOAPSIS":"565.148","DECAY_DATE":null,"SITE":"AFWTR","TIME_SYSTEM":"UTC","MEAN_ANOMALY":"267.9274","NORAD_CAT_ID":"53660","REF_FRAME":"TEME","SEMIMAJOR_AXIS":"6941.114","CENTER_NAME":"EARTH","LAUNCH_DATE":"2022-08-31","OBJECT_ID":"2022-105N","OBJECT_TYPE":"PAYLOAD","ECCENTRICITY":"0.00031250","INCLINATION":"97.6525","COUNTRY_CODE":"US","ARG_OF_PERICENTER":"92.2308","RA_OF_ASC_NODE":"274.9672","MEAN_MOTION_DDOT":"0.0000000000000","MEAN_MOTION":"15.01270708","MEAN_MOTION_DOT":"0.00003635","EPHEMERIS_TYPE":"0","PERIOD":"95.919","OBJECT_NAME":"STARLINK-4473","BSTAR":"0.00028733000000","TLE_LINE1":"1 53660U 22105N   23031.93235653  .00003635  00000-0  28733-3 0  9998","PERIAPSIS":"560.810","REV_AT_EPOCH":"2328","TLE_LINE2":"2 53660  97.6525 274.9672 0003125  92.2308 267.9274 15.01270708 23281","CLASSIFICATION_TYPE":"U","RCS_SIZE":"LARGE","ELEMENT_SET_NO":"999","FILE":"3766747","EPOCH":"2023-01-31T22:22:35.604192","MEAN_ELEMENT_THEORY":"SGP4","GP_ID":"224130100"},{"BSTAR":"-0.00000069181000","OBJECT_NAME":"STARLINK-4472","PERIOD":"95.919","EPHEMERIS_TYPE":"0","MEAN_MOTION_DOT":"-0.00000068","MEAN_MOTION":"15.01265429","MEAN_MOTION_DDOT":"0.0000000000000","GP_ID":"224128848","MEAN_ELEMENT_THEORY":"SGP4","EPOCH":"2023-01-31T22:27:55.654848","FILE":"3766747","ELEMENT_SET_NO":"999","RCS_SIZE":"LARGE","CLASSIFICATION_TYPE":"U","TLE_LINE2":"2 53661  97.6526 274.9729 0003187  87.8236 272.3353 15.01265429 23286","REV_AT_EPOCH":"2328","PERIAPSIS":"560.783","TLE_LINE1":"1 53661U 22105P   23031.93606082 -.00000068  00000-0 -69181-6 0  9991","SEMIMAJOR_AXIS":"6941.130","REF_FRAME":"TEME","NORAD_CAT_ID":"53661","MEAN_ANOMALY":"272.3353","TIME_SYSTEM":"UTC","SITE":"AFWTR","DECAY_DATE":null,"APOAPSIS":"565.207","RA_OF_ASC_NODE":"274.9729","ARG_OF_PERICENTER":"87.8236","COUNTRY_CODE":"US","INCLINATION":"97.6526","ECCENTRICITY":"0.00031870","OBJECT_TYPE":"PAYLOAD","OBJECT_ID":"2022-105P","LAUNCH_DATE":"2022-08-31","CENTER_NAME":"EARTH"},{"EPOCH":"2023-01-31T22:17:15.854208","FILE":"3766747","GP_ID":"224128599","MEAN_ELEMENT_THEORY":"SGP4","REV_AT_EPOCH":"2328","TLE_LINE2":"2 53662  97.6521 274.9582 0003150  90.4661 269.6924 15.01278336 23285","TLE_LINE1":"1 53662U 22105Q   23031.92865572  .00005439  00000-0  42749-3 0  9995","PERIAPSIS":"560.769","RCS_SIZE":"LARGE","ELEMENT_SET_NO":"999","CLASSIFICATION_TYPE":"U","EPHEMERIS_TYPE":"0","PERIOD":"95.918","MEAN_MOTION_DOT":"0.00005439","OBJECT_NAME":"STARLINK-4357","BSTAR":"0.00042749000000","MEAN_MOTION_DDOT":"0.0000000000000","MEAN_MOTION":"15.01278336","ECCENTRICITY":"0.00031500","INCLINATION":"97.6521","RA_OF_ASC_NODE":"274.9582","COUNTRY_CODE":"US","ARG_OF_PERICENTER":"90.4661","LAUNCH_DATE":"2022-08-31","OBJECT_ID":"2022-105Q","CENTER_NAME":"EARTH","OBJECT_TYPE":"PAYLOAD","MEAN_ANOMALY":"269.6924","TIME_SYSTEM":"UTC","SEMIMAJOR_AXIS":"6941.090","NORAD_CAT_ID":"53662","REF_FRAME":"TEME","APOAPSIS":"565.142","SITE":"AFWTR","DECAY_DATE":null},{"SEMIMAJOR_AXIS":"6941.132","NORAD_CAT_ID":"53663","REF_FRAME":"TEME","MEAN_ANOMALY":"270.4948","TIME_SYSTEM":"UTC","SITE":"AFWTR","DECAY_DATE":null,"APOAPSIS":"565.555","RA_OF_ASC_NODE":"274.9659","COUNTRY_CODE":"US","ARG_OF_PERICENTER":"89.6699","ECCENTRICITY":"0.00036850","INCLINATION":"97.6527","OBJECT_TYPE":"PAYLOAD","LAUNCH_DATE":"2022-08-31","OBJECT_ID":"2022-105R","CENTER_NAME":"EARTH","OBJECT_NAME":"STARLINK-4457","BSTAR":"0.00007232000000","EPHEMERIS_TYPE":"0","PERIOD":"95.919","MEAN_MOTION_DOT":"0.00000870","MEAN_MOTION_DDOT":"0.0000000000000","MEAN_MOTION":"15.01264792","GP_ID":"224129850","MEAN_ELEMENT_THEORY":"SGP4","EPOCH":"2023-01-31T22:25:15.636864","FILE":"3766747","RCS_SIZE":"LARGE","ELEMENT_SET_NO":"999","CLASSIFICATION_TYPE":"U","REV_AT_EPOCH":"2328","TLE_LINE2":"2 53663  97.6527 274.9659 0003685  89.6699 270.4948 15.01264792 23288","TLE_LINE1":"1 53663U 22105R   23031.93420876  .00000870  00000-0  72320-4 0  9994","PERIAPSIS":"560.439"},{"INCLINATION":"97.6535","ECCENTRICITY":"0.00027020","RA_OF_ASC_NODE":"274.9523","ARG_OF_PERICENTER":"92.1438","COUNTRY_CODE":"US","OBJECT_ID":"2022-105S","LAUNCH_DATE":"2022-08-31","CENTER_NAME":"EARTH","OBJECT_TYPE":"PAYLOAD","MEAN_ANOMALY":"268.0096","TIME_SYSTEM":"UTC","SEMIMAJOR_AXIS":"6941.106","NORAD_CAT_ID":"53664","REF_FRAME":"TEME","APOAPSIS":"564.847","SITE":"AFWTR","DECAY_DATE":null,"EPOCH":"2023-01-31T22:14:35.316096","FILE":"3766747","GP_ID":"224129601","MEAN_ELEMENT_THEORY":"SGP4","TLE_LINE2":"2 53664  97.6535 274.9523 0002702  92.1438 268.0096 15.01273104 23281","REV_AT_EPOCH":"2328","PERIAPSIS":"561.096","TLE_LINE1":"1 53664U 22105S   23031.92679764  .00001529  00000-0  12356-3 0  9990","ELEMENT_SET_NO":"999","RCS_SIZE":"LARGE","CLASSIFICATION_TYPE":"U","PERIOD":"95.919","EPHEMERIS_TYPE":"0","MEAN_MOTION_DOT":"0.00001529","BSTAR":"0.00012356000000","OBJECT_NAME":"STARLINK-4471","MEAN_MOTION":"15.01273104","MEAN_MOTION_DDOT":"0.0000000000000"},{"COUNTRY_CODE":"US","ARG_OF_PERICENTER":"86.8634","RA_OF_ASC_NODE":"274.6352","ECCENTRICITY":"0.00034320","INCLINATION":"97.6518","OBJECT_TYPE":"PAYLOAD","CENTER_NAME":"EARTH","LAUNCH_DATE":"2022-08-31","OBJECT_ID":"2022-105T","REF_FRAME":"TEME","NORAD_CAT_ID":"53665","SEMIMAJOR_AXIS":"6941.138","TIME_SYSTEM":"UTC","MEAN_ANOMALY":"273.2983","DECAY_DATE":null,"SITE":"AFWTR","APOAPSIS":"565.385","MEAN_ELEMENT_THEORY":"SGP4","GP_ID":"224097989","FILE":"3766475","EPOCH":"2023-01-31T14:20:23.257824","CLASSIFICATION_TYPE":"U","RCS_SIZE":"LARGE","ELEMENT_SET_NO":"999","TLE_LINE1":"1 53665U 22105T   23031.59749141  .00000886  00000-0  73577-4 0  9999","PERIAPSIS":"560.621","REV_AT_EPOCH":"2323","TLE_LINE2":"2 53665  97.6518 274.6352 0003432  86.8634 273.2983 15.01262800 23238","OBJECT_NAME":"STARLINK-4334","BSTAR":"0.00007357700000","MEAN_MOTION_DOT":"0.00000886","EPHEMERIS_TYPE":"0","PERIOD":"95.919","MEAN_MOTION_DDOT":"0.0000000000000","MEAN_MOTION":"15.01262800"},{"RCS_SIZE":"LARGE","ELEMENT_SET_NO":"999","CLASSIFICATION_TYPE":"U","REV_AT_EPOCH":"2328","TLE_LINE2":"2 53666  97.6558 274.9379 0001968  99.3331 260.8116 15.01267753 23287","TLE_LINE1":"1 53666U 22105U   23031.92334148  .00001529  00000-0  12358-3 0  9998","PERIAPSIS":"561.622","GP_ID":"224129099","MEAN_ELEMENT_THEORY":"SGP4","EPOCH":"2023-01-31T22:09:36.703872","FILE":"3766747","MEAN_MOTION_DDOT":"0.0000000000000","MEAN_MOTION":"15.01267753","OBJECT_NAME":"STARLINK-4449","BSTAR":"0.00012358000000","EPHEMERIS_TYPE":"0","PERIOD":"95.919","MEAN_MOTION_DOT":"0.00001529","OBJECT_TYPE":"PAYLOAD","LAUNCH_DATE":"2022-08-31","OBJECT_ID":"2022-105U","CENTER_NAME":"EARTH","RA_OF_ASC_NODE":"274.9379","COUNTRY_CODE":"US","ARG_OF_PERICENTER":"99.3331","ECCENTRICITY":"0.00019680","INCLINATION":"97.6558","SITE":"AFWTR","DECAY_DATE":null,"APOAPSIS":"564.354","SEMIMAJOR_AXIS":"6941.123","REF_FRAME":"TEME","NORAD_CAT_ID":"53666","MEAN_ANOMALY":"260.8116","TIME_SYSTEM":"UTC"},{"MEAN_MOTION_DOT":"0.00001055","EPHEMERIS_TYPE":"0","PERIOD":"95.919","OBJECT_NAME":"STARLINK-4406","BSTAR":"0.00008671600000","MEAN_MOTION_DDOT":"0.0000000000000","MEAN_MOTION":"15.01266818","FILE":"3766747","EPOCH":"2023-01-31T22:19:55.448832","MEAN_ELEMENT_THEORY":"SGP4","GP_ID":"224129351","TLE_LINE1":"1 53667U 22105V   23031.93050288  .00001055  00000-0  86716-4 0  9994","PERIAPSIS":"560.825","REV_AT_EPOCH":"2328","TLE_LINE2":"2 53667  97.6528 274.9643 0003120  91.3897 268.7685 15.01266818 23289","CLASSIFICATION_TYPE":"U","RCS_SIZE":"LARGE","ELEMENT_SET_NO":"999","TIME_SYSTEM":"UTC","MEAN_ANOMALY":"268.7685","REF_FRAME":"TEME","NORAD_CAT_ID":"53667","SEMIMAJOR_AXIS":"6941.126","APOAPSIS":"565.156","DECAY_DATE":null,"SITE":"AFWTR","ECCENTRICITY":"0.00031200","INCLINATION":"97.6528","COUNTRY_CODE":"US","ARG_OF_PERICENTER":"91.3897","RA_OF_ASC_NODE":"274.9643","CENTER_NAME":"EARTH","LAUNCH_DATE":"2022-08-31","OBJECT_ID":"2022-105V","OBJECT_TYPE":"PAYLOAD"}];
